STARLINK-35690          
1 66383U 25257D   25327.16670139  .00047026  00000+0  32296-3 0  9992
2 66383  53.1622 358.0286 0001032  64.0989  56.3970 15.74234485  3355
STARLINK-35662          
1 66384U 25257E   25327.16670139 -.00085357  00000+0 -58316-3 0  9995
2 66384  53.1619 358.0253 0001182  83.4342  39.0806 15.74238316  3353
STARLINK-35659          
1 66385U 25257F   25327.16670139 -.00107738  00000+0 -73885-3 0  9992
2 66385  53.1619 358.0330 0001498 104.8059  13.8808 15.74246948  3355
STARLINK-35651          
1 66386U 25257G   25327.16670139 -.00034069  00000+0 -22893-3 0  9992
2 66386  53.1624 358.0211 0001529  93.7557  30.6833 15.74220784  3359
STARLINK-35661          
1 66387U 25257H   25327.16670139  .00025025  00000+0  17464-3 0  9991
2 66387  53.1624 358.0170 0001386  97.5107  28.8490 15.74190022  3357
STARLINK-35647          
1 66388U 25257J   25327.16670139 -.00017118  00000+0 -11272-3 0  9999
2 66388  53.1624 358.0130 0000865  84.8807  43.3838 15.74210908  3355
STARLINK-35694          
1 66389U 25257K   25327.16670139  .00039366  00000+0  27186-3 0  9998
2 66389  53.1624 358.0084 0001342  99.2366  30.9458 15.74185952  3355
STARLINK-35665          
1 66390U 25257L   25327.16670139 -.00056845  00000+0 -38681-3 0  9995
2 66390  53.1584 357.9369 0001010  60.8151 103.8327 15.74167747  3452
STARLINK-35656          
1 66391U 25257M   25327.16670139 -.02130463  00000+0 -16121-1 0  9990
2 66391  53.1543 357.6050 0000958  87.1381 238.4298 15.74866849  3450
STARLINK-35671          
1 66392U 25257N   25327.16670139 -.00027108  00000+0 -18133-3 0  9997
2 66392  53.1618 358.0009 0001021  84.4378  49.5912 15.74196415  3359
STARLINK-35652          
1 66393U 25257P   25327.16670139 -.00036180  00000+0 -24363-3 0  9990
2 66393  53.1624 358.0047 0001353  97.6584  34.4564 15.74204318  3350
STARLINK-35672          
1 66394U 25257Q   25327.16670139 -.00004232  00000+0 -24587-4 0  9993
2 66394  53.1569 357.9963 0001818  99.5681  36.3673 15.74201230  3351
